{
    "links": {
        "self": "http://www.neowsapp.com/rest/v1/neo/3698524?api_key=iIulBulltgU6a56xZRHN4H3l9WmuAYTsLGpBGhQ2"
    },
    "id": "3698524",
    "neo_reference_id": "3698524",
    "name": "(2014 HX197)",
    "designation": "2014 HX197",
    "nasa_jpl_url": "http://ssd.jpl.nasa.gov/sbdb.cgi?sstr=3698524",
    "absolute_magnitude_h": 24.7,
    "estimated_diameter": {
        "kilometers": {
            "estimated_diameter_min": 0.0305179233,
            "estimated_diameter_max": 0.0682401509
        },
        "meters": {
            "estimated_diameter_min": 30.5179232594,
            "estimated_diameter_max": 68.2401509401
        },
        "miles": {
            "estimated_diameter_min": 0.0189629525,
            "estimated_diameter_max": 0.0424024508
        },
        "feet": {
            "estimated_diameter_min": 100.1244233463,
            "estimated_diameter_max": 223.8850168104
        }
    },
    "is_potentially_hazardous_asteroid": false,
    "close_approach_data": [
        {
            "close_approach_date": "2014-04-30",
            "close_approach_date_full": "2014-Apr-30 06:53",
            "epoch_date_close_approach": 1398840780000,
            "relative_velocity": {
                "kilometers_per_second": "9.1289686837",
                "kilometers_per_hour": "32864.2872611783",
                "miles_per_hour": "20420.5900484805"
            },
            "miss_distance": {
                "astronomical": "0.2603572507",
                "lunar": "101.2789705223",
                "kilometers": "38948890.143776009",
                "miles": "24201718.0867625642"
            },
            "orbiting_body": "Earth"
        }
    ],
    "orbital_data": {
        "orbit_id": "3",
        "orbit_determination_date": "2017-04-06 08:40:55",
        "first_observation_date": "2014-04-24",
        "last_observation_date": "2014-04-26",
        "data_arc_in_days": 2,
        "observations_used": 30,
        "orbit_uncertainty": "9",
        "minimum_orbit_intersection": ".260266",
        "jupiter_tisserand_invariant": "3.909",
        "epoch_osculation": "2456772.5",
        "eccentricity": ".3106403574068091",
        "semi_major_axis": "1.838033547061444",
        "inclination": "17.48040689593859",
        "ascending_node_longitude": "217.1299537453295",
        "orbital_period": "910.1827018270218",
        "perihelion_distance": "1.267066149076572",
        "perihelion_argument": "3.849055248016545",
        "aphelion_distance": "2.409000945046316",
        "perihelion_time": "2456779.861499850340",
        "mean_anomaly": "357.0883428779708",
        "mean_motion": ".3955249855631921",
        "equinox": "J2000",
        "orbit_class": {
            "orbit_class_type": "AMO",
            "orbit_class_description": "Near-Earth asteroid orbits similar to that of 1221 Amor",
            "orbit_class_range": "1.017 AU < q (perihelion) < 1.3 AU"
        }
    },
    "is_sentry_object": false
}